{
    "links": {
        "self": "http://www.neowsapp.com/rest/v1/neo/54076019?api_key=iIulBulltgU6a56xZRHN4H3l9WmuAYTsLGpBGhQ2"
    },
    "id": "54076019",
    "neo_reference_id": "54076019",
    "name": "(2020 UL4)",
    "designation": "2020 UL4",
    "nasa_jpl_url": "http://ssd.jpl.nasa.gov/sbdb.cgi?sstr=54076019",
    "absolute_magnitude_h": 26.857,
    "estimated_diameter": {
        "kilometers": {
            "estimated_diameter_min": 0.0113019915,
            "estimated_diameter_max": 0.0252720213
        },
        "meters": {
            "estimated_diameter_min": 11.301991507,
            "estimated_diameter_max": 25.2720212908
        },
        "miles": {
            "estimated_diameter_min": 0.0070227298,
            "estimated_diameter_max": 0.0157033011
        },
        "feet": {
            "estimated_diameter_min": 37.0800258158,
            "estimated_diameter_max": 82.9134583316
        }
    },
    "is_potentially_hazardous_asteroid": false,
    "close_approach_data": [
        {
            "close_approach_date": "2020-10-21",
            "close_approach_date_full": "2020-Oct-21 10:35",
            "epoch_date_close_approach": 1603276500000,
            "relative_velocity": {
                "kilometers_per_second": "12.190248564",
                "kilometers_per_hour": "43884.8948305289",
                "miles_per_hour": "27268.3670128917"
            },
            "miss_distance": {
                "astronomical": "0.0200234814",
                "lunar": "7.7891342646",
                "kilometers": "2995470.167424618",
                "miles": "1861298.8524630084"
            },
            "orbiting_body": "Earth"
        }
    ],
    "orbital_data": {
        "orbit_id": "1",
        "orbit_determination_date": "2020-10-23 16:12:08",
        "first_observation_date": "2020-10-23",
        "last_observation_date": "2020-10-23",
        "data_arc_in_days": null,
        "observations_used": 23,
        "orbit_uncertainty": "8",
        "minimum_orbit_intersection": ".0198399",
        "jupiter_tisserand_invariant": "3.817",
        "epoch_osculation": "2459145.5",
        "eccentricity": ".4794567742318026",
        "semi_major_axis": "1.853773658202012",
        "inclination": "15.4311826030953",
        "ascending_node_longitude": "210.3545968027807",
        "orbital_period": "921.8993033577228",
        "perihelion_distance": ".9649693198845875",
        "perihelion_argument": "146.5991221925911",
        "aphelion_distance": "2.742577996519437",
        "perihelion_time": "2459118.599929046868",
        "mean_anomaly": "10.50442874602092",
        "mean_motion": ".3904981798866919",
        "equinox": "J2000",
        "orbit_class": {
            "orbit_class_type": "APO",
            "orbit_class_description": "Near-Earth asteroid orbits which cross the Earth’s orbit similar to that of 1862 Apollo",
            "orbit_class_range": "a (semi-major axis) > 1.0 AU; q (perihelion) < 1.017 AU"
        }
    },
    "is_sentry_object": false
}